ORBCOMM FM33            
1 25983U 99065D   25046.45733611  .00002712  00000+0  90746-3 0  9993
2 25983  45.0268 217.5112 0009526 170.1347 189.9691 14.39453536318590
ORBCOMM FM36            
1 25984U 99065E   25045.91405844  .00002478  00000+0  86575-3 0  9992
2 25984  45.0397 310.1388 0004029  37.7682 322.3449 14.37559162316820
ORBCOMM FM35            
1 25985U 99065F   25045.87832822  .00001720  00000+0  62702-3 0  9993
2 25985  45.0409 314.4016 0002697 129.7920 230.3166 14.36617906317191
ORBCOMM FM34            
1 25986U 99065G   25046.47333332  .00002099  00000+0  75389-3 0  9998
2 25986  45.0396 312.0977 0003844  77.4698 282.6580 14.36667324317439
ORBCOMM FM38            
1 33060U 08031A   25045.82245972  .00003764  00000+0  51492-3 0  9992
2 33060  48.4392 178.0536 0006388 234.4932 125.5388 14.80389717896616
ORBCOMM FM41            
1 33061U 08031B   25046.40588782  .00004349  00000+0  59578-3 0  9990
2 33061  48.4426 182.6519 0005493 224.3153 165.2056 14.80022061896637
ORBCOMM FM29            
1 33062U 08031C   25045.74189691  .00004083  00000+0  56042-3 0  9991
2 33062  48.4376 193.7483 0007217 218.7070 278.3411 14.80065972896006
ORBCOMM FM39            
1 33063U 08031D   25045.90123184  .00003987  00000+0  56513-3 0  9990
2 33063  48.4384 215.9659 0007875 193.7973 166.2727 14.78736332895693
