<?xml version="1.0" encoding="UTF-8"?>
<ndm xmlns:xsi="http://www.w3.org/2001/XMLSchema-instance" xsi:noNamespaceSchemaLocation="https://sanaregistry.org/r/ndmxml_unqualified/ndmxml-2.0.0-master-2.0.xsd">
<omm id="CCSDS_OMM_VERS" version="2.0">
<header><CREATION_DATE/><ORIGINATOR/></header><body><segment><metadata><OBJECT_NAME>ORBCOMM FM33</OBJECT_NAME><OBJECT_ID>1999-065D</OBJECT_ID><CENTER_NAME>EARTH</CENTER_NAME><REF_FRAME>TEME</REF_FRAME><TIME_SYSTEM>UTC</TIME_SYSTEM><MEAN_ELEMENT_THEORY>SGP4</MEAN_ELEMENT_THEORY></metadata><data><meanElements><EPOCH>2025-02-15T10:58:33.839904</EPOCH><MEAN_MOTION>14.39453536</MEAN_MOTION><ECCENTRICITY>.0009526</ECCENTRICITY><INCLINATION>45.0268</INCLINATION><RA_OF_ASC_NODE>217.5112</RA_OF_ASC_NODE><ARG_OF_PERICENTER>170.1347</ARG_OF_PERICENTER><MEAN_ANOMALY>189.9691</MEAN_ANOMALY></meanElements><tleParameters><EPHEMERIS_TYPE>0</EPHEMERIS_TYPE><CLASSIFICATION_TYPE>U</CLASSIFICATION_TYPE><NORAD_CAT_ID>25983</NORAD_CAT_ID><ELEMENT_SET_NO>999</ELEMENT_SET_NO><REV_AT_EPOCH>31859</REV_AT_EPOCH><BSTAR>.90746E-3</BSTAR><MEAN_MOTION_DOT>.2712E-4</MEAN_MOTION_DOT><MEAN_MOTION_DDOT>0</MEAN_MOTION_DDOT></tleParameters></data></segment></body></omm>
<omm id="CCSDS_OMM_VERS" version="2.0">
<header><CREATION_DATE/><ORIGINATOR/></header><body><segment><metadata><OBJECT_NAME>ORBCOMM FM36</OBJECT_NAME><OBJECT_ID>1999-065E</OBJECT_ID><CENTER_NAME>EARTH</CENTER_NAME><REF_FRAME>TEME</REF_FRAME><TIME_SYSTEM>UTC</TIME_SYSTEM><MEAN_ELEMENT_THEORY>SGP4</MEAN_ELEMENT_THEORY></metadata><data><meanElements><EPOCH>2025-02-14T21:56:14.649216</EPOCH><MEAN_MOTION>14.37559162</MEAN_MOTION><ECCENTRICITY>.0004029</ECCENTRICITY><INCLINATION>45.0397</INCLINATION><RA_OF_ASC_NODE>310.1388</RA_OF_ASC_NODE><ARG_OF_PERICENTER>37.7682</ARG_OF_PERICENTER><MEAN_ANOMALY>322.3449</MEAN_ANOMALY></meanElements><tleParameters><EPHEMERIS_TYPE>0</EPHEMERIS_TYPE><CLASSIFICATION_TYPE>U</CLASSIFICATION_TYPE><NORAD_CAT_ID>25984</NORAD_CAT_ID><ELEMENT_SET_NO>999</ELEMENT_SET_NO><REV_AT_EPOCH>31682</REV_AT_EPOCH><BSTAR>.86575E-3</BSTAR><MEAN_MOTION_DOT>.2478E-4</MEAN_MOTION_DOT><MEAN_MOTION_DDOT>0</MEAN_MOTION_DDOT></tleParameters></data></segment></body></omm>
<omm id="CCSDS_OMM_VERS" version="2.0">
<header><CREATION_DATE/><ORIGINATOR/></header><body><segment><metadata><OBJECT_NAME>ORBCOMM FM35</OBJECT_NAME><OBJECT_ID>1999-065F</OBJECT_ID><CENTER_NAME>EARTH</CENTER_NAME><REF_FRAME>TEME</REF_FRAME><TIME_SYSTEM>UTC</TIME_SYSTEM><MEAN_ELEMENT_THEORY>SGP4</MEAN_ELEMENT_THEORY></metadata><data><meanElements><EPOCH>2025-02-14T21:04:47.558208</EPOCH><MEAN_MOTION>14.36617906</MEAN_MOTION><ECCENTRICITY>.0002697</ECCENTRICITY><INCLINATION>45.0409</INCLINATION><RA_OF_ASC_NODE>314.4016</RA_OF_ASC_NODE><ARG_OF_PERICENTER>129.7920</ARG_OF_PERICENTER><MEAN_ANOMALY>230.3166</MEAN_ANOMALY></meanElements><tleParameters><EPHEMERIS_TYPE>0</EPHEMERIS_TYPE><CLASSIFICATION_TYPE>U</CLASSIFICATION_TYPE><NORAD_CAT_ID>25985</NORAD_CAT_ID><ELEMENT_SET_NO>999</ELEMENT_SET_NO><REV_AT_EPOCH>31719</REV_AT_EPOCH><BSTAR>.62702E-3</BSTAR><MEAN_MOTION_DOT>.172E-4</MEAN_MOTION_DOT><MEAN_MOTION_DDOT>0</MEAN_MOTION_DDOT></tleParameters></data></segment></body></omm>
<omm id="CCSDS_OMM_VERS" version="2.0">
<header><CREATION_DATE/><ORIGINATOR/></header><body><segment><metadata><OBJECT_NAME>ORBCOMM FM34</OBJECT_NAME><OBJECT_ID>1999-065G</OBJECT_ID><CENTER_NAME>EARTH</CENTER_NAME><REF_FRAME>TEME</REF_FRAME><TIME_SYSTEM>UTC</TIME_SYSTEM><MEAN_ELEMENT_THEORY>SGP4</MEAN_ELEMENT_THEORY></metadata><data><meanElements><EPOCH>2025-02-15T11:21:35.998848</EPOCH><MEAN_MOTION>14.36667324</MEAN_MOTION><ECCENTRICITY>.0003844</ECCENTRICITY><INCLINATION>45.0396</INCLINATION><RA_OF_ASC_NODE>312.0977</RA_OF_ASC_NODE><ARG_OF_PERICENTER>77.4698</ARG_OF_PERICENTER><MEAN_ANOMALY>282.6580</MEAN_ANOMALY></meanElements><tleParameters><EPHEMERIS_TYPE>0</EPHEMERIS_TYPE><CLASSIFICATION_TYPE>U</CLASSIFICATION_TYPE><NORAD_CAT_ID>25986</NORAD_CAT_ID><ELEMENT_SET_NO>999</ELEMENT_SET_NO><REV_AT_EPOCH>31743</REV_AT_EPOCH><BSTAR>.75389E-3</BSTAR><MEAN_MOTION_DOT>.2099E-4</MEAN_MOTION_DOT><MEAN_MOTION_DDOT>0</MEAN_MOTION_DDOT></tleParameters></data></segment></body></omm>
<omm id="CCSDS_OMM_VERS" version="2.0">
<header><CREATION_DATE/><ORIGINATOR/></header><body><segment><metadata><OBJECT_NAME>ORBCOMM FM38</OBJECT_NAME><OBJECT_ID>2008-031A</OBJECT_ID><CENTER_NAME>EARTH</CENTER_NAME><REF_FRAME>TEME</REF_FRAME><TIME_SYSTEM>UTC</TIME_SYSTEM><MEAN_ELEMENT_THEORY>SGP4</MEAN_ELEMENT_THEORY></metadata><data><meanElements><EPOCH>2025-02-14T19:44:20.519808</EPOCH><MEAN_MOTION>14.80389717</MEAN_MOTION><ECCENTRICITY>.0006388</ECCENTRICITY><INCLINATION>48.4392</INCLINATION><RA_OF_ASC_NODE>178.0536</RA_OF_ASC_NODE><ARG_OF_PERICENTER>234.4932</ARG_OF_PERICENTER><MEAN_ANOMALY>125.5388</MEAN_ANOMALY></meanElements><tleParameters><EPHEMERIS_TYPE>0</EPHEMERIS_TYPE><CLASSIFICATION_TYPE>U</CLASSIFICATION_TYPE><NORAD_CAT_ID>33060</NORAD_CAT_ID><ELEMENT_SET_NO>999</ELEMENT_SET_NO><REV_AT_EPOCH>89661</REV_AT_EPOCH><BSTAR>.51492E-3</BSTAR><MEAN_MOTION_DOT>.3764E-4</MEAN_MOTION_DOT><MEAN_MOTION_DDOT>0</MEAN_MOTION_DDOT></tleParameters></data></segment></body></omm>
<omm id="CCSDS_OMM_VERS" version="2.0">
<header><CREATION_DATE/><ORIGINATOR/></header><body><segment><metadata><OBJECT_NAME>ORBCOMM FM41</OBJECT_NAME><OBJECT_ID>2008-031B</OBJECT_ID><CENTER_NAME>EARTH</CENTER_NAME><REF_FRAME>TEME</REF_FRAME><TIME_SYSTEM>UTC</TIME_SYSTEM><MEAN_ELEMENT_THEORY>SGP4</MEAN_ELEMENT_THEORY></metadata><data><meanElements><EPOCH>2025-02-15T09:44:28.707648</EPOCH><MEAN_MOTION>14.80022061</MEAN_MOTION><ECCENTRICITY>.0005493</ECCENTRICITY><INCLINATION>48.4426</INCLINATION><RA_OF_ASC_NODE>182.6519</RA_OF_ASC_NODE><ARG_OF_PERICENTER>224.3153</ARG_OF_PERICENTER><MEAN_ANOMALY>165.2056</MEAN_ANOMALY></meanElements><tleParameters><EPHEMERIS_TYPE>0</EPHEMERIS_TYPE><CLASSIFICATION_TYPE>U</CLASSIFICATION_TYPE><NORAD_CAT_ID>33061</NORAD_CAT_ID><ELEMENT_SET_NO>999</ELEMENT_SET_NO><REV_AT_EPOCH>89663</REV_AT_EPOCH><BSTAR>.59578E-3</BSTAR><MEAN_MOTION_DOT>.4349E-4</MEAN_MOTION_DOT><MEAN_MOTION_DDOT>0</MEAN_MOTION_DDOT></tleParameters></data></segment></body></omm>
<omm id="CCSDS_OMM_VERS" version="2.0">
<header><CREATION_DATE/><ORIGINATOR/></header><body><segment><metadata><OBJECT_NAME>ORBCOMM FM29</OBJECT_NAME><OBJECT_ID>2008-031C</OBJECT_ID><CENTER_NAME>EARTH</CENTER_NAME><REF_FRAME>TEME</REF_FRAME><TIME_SYSTEM>UTC</TIME_SYSTEM><MEAN_ELEMENT_THEORY>SGP4</MEAN_ELEMENT_THEORY></metadata><data><meanElements><EPOCH>2025-02-14T17:48:19.893024</EPOCH><MEAN_MOTION>14.80065972</MEAN_MOTION><ECCENTRICITY>.0007217</ECCENTRICITY><INCLINATION>48.4376</INCLINATION><RA_OF_ASC_NODE>193.7483</RA_OF_ASC_NODE><ARG_OF_PERICENTER>218.7070</ARG_OF_PERICENTER><MEAN_ANOMALY>278.3411</MEAN_ANOMALY></meanElements><tleParameters><EPHEMERIS_TYPE>0</EPHEMERIS_TYPE><CLASSIFICATION_TYPE>U</CLASSIFICATION_TYPE><NORAD_CAT_ID>33062</NORAD_CAT_ID><ELEMENT_SET_NO>999</ELEMENT_SET_NO><REV_AT_EPOCH>89600</REV_AT_EPOCH><BSTAR>.56042E-3</BSTAR><MEAN_MOTION_DOT>.4083E-4</MEAN_MOTION_DOT><MEAN_MOTION_DDOT>0</MEAN_MOTION_DDOT></tleParameters></data></segment></body></omm>
<omm id="CCSDS_OMM_VERS" version="2.0">
<header><CREATION_DATE/><ORIGINATOR/></header><body><segment><metadata><OBJECT_NAME>ORBCOMM FM39</OBJECT_NAME><OBJECT_ID>2008-031D</OBJECT_ID><CENTER_NAME>EARTH</CENTER_NAME><REF_FRAME>TEME</REF_FRAME><TIME_SYSTEM>UTC</TIME_SYSTEM><MEAN_ELEMENT_THEORY>SGP4</MEAN_ELEMENT_THEORY></metadata><data><meanElements><EPOCH>2025-02-14T21:37:46.430976</EPOCH><MEAN_MOTION>14.78736332</MEAN_MOTION><ECCENTRICITY>.0007875</ECCENTRICITY><INCLINATION>48.4384</INCLINATION><RA_OF_ASC_NODE>215.9659</RA_OF_ASC_NODE><ARG_OF_PERICENTER>193.7973</ARG_OF_PERICENTER><MEAN_ANOMALY>166.2727</MEAN_ANOMALY></meanElements><tleParameters><EPHEMERIS_TYPE>0</EPHEMERIS_TYPE><CLASSIFICATION_TYPE>U</CLASSIFICATION_TYPE><NORAD_CAT_ID>33063</NORAD_CAT_ID><ELEMENT_SET_NO>999</ELEMENT_SET_NO><REV_AT_EPOCH>89569</REV_AT_EPOCH><BSTAR>.56513E-3</BSTAR><MEAN_MOTION_DOT>.3987E-4</MEAN_MOTION_DOT><MEAN_MOTION_DDOT>0</MEAN_MOTION_DDOT></tleParameters></data></segment></body></omm>

</ndm>
